GLOBALSTAR M057 [-]     
1 25943U 99058A   23256.04142206 -.00000080  00000+0  11425-3 0  9995
2 25943  52.0015  13.3517 0003297 125.4625 234.6532 12.24771345 88191
GLOBALSTAR M059 [-]     
1 25944U 99058B   23256.04252167 -.00000085  00000+0  11691-4 0  9995
2 25944  52.0010 147.0436 0000814  75.4234  31.9618 11.99952406 85587
GLOBALSTAR M056 [-]     
1 25945U 99058C   23256.01765377 -.00000115  00000+0 -31746-3 0  9992
2 25945  51.9958 165.5967 0001297   6.8042   6.2725 12.04768240 85146
GLOBALSTAR M031 [-]     
1 25946U 99058D   23255.89461167  .00000026  00000+0  11780-2 0  9992
2 25946  51.9950  96.7354 0001350 344.5454 120.5213 12.15995349 86285
GLOBALSTAR M039 [-]     
1 25961U 99062A   23256.44477343 -.00000085  00000+0  10742-3 0  9993
2 25961  51.9847  66.2823 0003042  19.9593 340.1392 12.62269614 99077
GLOBALSTAR M034 [-]     
1 25962U 99062B   23256.30904019 -.00000074  00000+0  11204-3 0  9996
2 25962  51.9847 242.4520 0014016 268.1383 200.7198 11.79414916 62516
GLOBALSTAR M029 [-]     
1 25963U 99062C   23256.10543787 -.00000088  00000+0 -19867-4 0  9996
2 25963  51.9827  35.4555 0001888 303.4451 228.5617 11.99867255 91971
GLOBALSTAR M061 [-]     
1 25964U 99062D   23256.44708887 -.00000043  00000+0  61644-3 0  9997
2 25964  51.9802  57.6102 0005758 189.8701 184.6161 11.76749886 45804
